STARLETTE               
1 07646U 75010A   22212.49860945 -.00000134  00000+0  92400-5 0  9998
2 07646  49.8250 296.3661 0205773  63.0684 299.1070 13.82313036398566
LAGEOS 1                
1 08820U 76039A   22212.30547164  .00000022  00000+0  00000+0 0  9994
2 08820 109.8530  54.0145 0045094 245.4003 270.3051  6.38664875822659
AJISAI (EGS)            
1 16908U 86061A   22212.51912010 -.00000106  00000+0 -60340-4 0  9998
2 16908  50.0077 183.5425 0011265 174.4958 291.8881 12.44497130303981
COSMOS 1989 (ETALON 1)  
1 19751U 89001C   22211.16872691  .00000008  00000+0  00000+0 0  9995
2 19751  64.3120 120.9174 0023771 213.3933 259.9545  2.13156344261141
COSMOS 2024 (ETALON 2)  
1 20026U 89039C   22212.29864823 -.00000055  00000+0  00000+0 0  9999
2 20026  65.5372 358.8987 0018483 218.4689 319.0647  2.13204411258294
LAGEOS 2                
1 22195U 92070B   22212.52224958 -.00000009  00000+0  00000+0 0  9991
2 22195  52.6597  81.9445 0138271 288.0988 268.1466  6.47293730703702
STELLA                  
1 22824U 93061B   22212.58267817 -.00000044  00000+0  92747-6 0  9993
2 22824  98.9627 234.6131 0006964  35.8458 133.6172 14.27392045502679
LARES                   
1 38077U 12006A   22212.18505589 -.00000013  00000+0  15887-3 0  9990
2 38077  69.4892 192.6050 0010989 289.0196  70.9636 12.54931753479393
